CCSDS_OMM_VERS = 2.0
CREATION_DATE  = 
ORIGINATOR     = 

OBJECT_NAME    = STARLINK-36338
OBJECT_ID      = 2026-025M
CENTER_NAME    = EARTH
REF_FRAME      = TEME
TIME_SYSTEM    = UTC
MEAN_ELEMENT_THEORY = SGP/SGP4

EPOCH          = 2026-02-20T04:00:03.000096
MEAN_MOTION    = 15.89589586
ECCENTRICITY   = .0001599
INCLINATION    = 97.2739
RA_OF_ASC_NODE = 161.8338
ARG_OF_PERICENTER = 70.8517
MEAN_ANOMALY   = 103.6141

EPHEMERIS_TYPE = 0
CLASSIFICATION_TYPE = U
NORAD_CAT_ID   = 67704
ELEMENT_SET_NO = 999
REV_AT_EPOCH   = 308
BSTAR          = -.56167E-2
MEAN_MOTION_DOT = -.1624678E-1
MEAN_MOTION_DDOT = .72224E-3

CCSDS_OMM_VERS = 2.0
CREATION_DATE  = 
ORIGINATOR     = 

OBJECT_NAME    = STARLINK-36316
OBJECT_ID      = 2026-025N
CENTER_NAME    = EARTH
REF_FRAME      = TEME
TIME_SYSTEM    = UTC
MEAN_ELEMENT_THEORY = SGP/SGP4

EPOCH          = 2026-02-20T04:00:03.000096
MEAN_MOTION    = 15.90197434
ECCENTRICITY   = .0001597
INCLINATION    = 97.2731
RA_OF_ASC_NODE = 161.8404
ARG_OF_PERICENTER = 65.6467
MEAN_ANOMALY   = 124.5502

EPHEMERIS_TYPE = 0
CLASSIFICATION_TYPE = U
NORAD_CAT_ID   = 67705
ELEMENT_SET_NO = 999
REV_AT_EPOCH   = 308
BSTAR          = -.5378E-2
MEAN_MOTION_DOT = -.1604E-1
MEAN_MOTION_DDOT = .70949E-3

CCSDS_OMM_VERS = 2.0
CREATION_DATE  = 
ORIGINATOR     = 

OBJECT_NAME    = STARLINK-36707
OBJECT_ID      = 2026-025P
CENTER_NAME    = EARTH
REF_FRAME      = TEME
TIME_SYSTEM    = UTC
MEAN_ELEMENT_THEORY = SGP/SGP4

EPOCH          = 2026-02-20T04:00:03.000096
MEAN_MOTION    = 15.90507485
ECCENTRICITY   = .0001702
INCLINATION    = 97.2726
RA_OF_ASC_NODE = 161.8438
ARG_OF_PERICENTER = 65.9041
MEAN_ANOMALY   = 132.4855

EPHEMERIS_TYPE = 0
CLASSIFICATION_TYPE = U
NORAD_CAT_ID   = 67706
ELEMENT_SET_NO = 999
REV_AT_EPOCH   = 287
BSTAR          = -.52085E-2
MEAN_MOTION_DOT = -.1578212E-1
MEAN_MOTION_DDOT = .69059E-3

CCSDS_OMM_VERS = 2.0
CREATION_DATE  = 
ORIGINATOR     = 

OBJECT_NAME    = STARLINK-36645
OBJECT_ID      = 2026-025Q
CENTER_NAME    = EARTH
REF_FRAME      = TEME
TIME_SYSTEM    = UTC
MEAN_ELEMENT_THEORY = SGP/SGP4

EPOCH          = 2026-02-20T04:00:03.000096
MEAN_MOTION    = 15.89943284
ECCENTRICITY   = .0001636
INCLINATION    = 97.2732
RA_OF_ASC_NODE = 161.8369
ARG_OF_PERICENTER = 67.0782
MEAN_ANOMALY   = 116.4060

EPHEMERIS_TYPE = 0
CLASSIFICATION_TYPE = U
NORAD_CAT_ID   = 67707
ELEMENT_SET_NO = 999
REV_AT_EPOCH   = 264
BSTAR          = -.55026E-2
MEAN_MOTION_DOT = -.1620182E-1
MEAN_MOTION_DDOT = .72102E-3

CCSDS_OMM_VERS = 2.0
CREATION_DATE  = 
ORIGINATOR     = 

OBJECT_NAME    = STARLINK-36287
OBJECT_ID      = 2026-025R
CENTER_NAME    = EARTH
REF_FRAME      = TEME
TIME_SYSTEM    = UTC
MEAN_ELEMENT_THEORY = SGP/SGP4

EPOCH          = 2026-02-20T04:00:03.000096
MEAN_MOTION    = 15.90779521
ECCENTRICITY   = .0001693
INCLINATION    = 97.2722
RA_OF_ASC_NODE = 161.8462
ARG_OF_PERICENTER = 66.5083
MEAN_ANOMALY   = 138.9574

EPHEMERIS_TYPE = 0
CLASSIFICATION_TYPE = U
NORAD_CAT_ID   = 67708
ELEMENT_SET_NO = 999
REV_AT_EPOCH   = 319
BSTAR          = -.51028E-2
MEAN_MOTION_DOT = -.1567723E-1
MEAN_MOTION_DDOT = .68393E-3

CCSDS_OMM_VERS = 2.0
CREATION_DATE  = 
ORIGINATOR     = 

OBJECT_NAME    = STARLINK-36698
OBJECT_ID      = 2026-025S
CENTER_NAME    = EARTH
REF_FRAME      = TEME
TIME_SYSTEM    = UTC
MEAN_ELEMENT_THEORY = SGP/SGP4

EPOCH          = 2026-02-20T04:00:03.000096
MEAN_MOTION    = 15.91849983
ECCENTRICITY   = .0001522
INCLINATION    = 97.2716
RA_OF_ASC_NODE = 161.8578
ARG_OF_PERICENTER = 72.0795
MEAN_ANOMALY   = 160.3359

EPHEMERIS_TYPE = 0
CLASSIFICATION_TYPE = U
NORAD_CAT_ID   = 67709
ELEMENT_SET_NO = 999
REV_AT_EPOCH   = 303
BSTAR          = -.47697E-2
MEAN_MOTION_DOT = -.1547686E-1
MEAN_MOTION_DDOT = .67496E-3

CCSDS_OMM_VERS = 2.0
CREATION_DATE  = 
ORIGINATOR     = 

OBJECT_NAME    = STARLINK-36344
OBJECT_ID      = 2026-025T
CENTER_NAME    = EARTH
REF_FRAME      = TEME
TIME_SYSTEM    = UTC
MEAN_ELEMENT_THEORY = SGP/SGP4

EPOCH          = 2026-02-20T04:00:03.000096
MEAN_MOTION    = 15.91195835
ECCENTRICITY   = .0001596
INCLINATION    = 97.2720
RA_OF_ASC_NODE = 161.8508
ARG_OF_PERICENTER = 67.1723
MEAN_ANOMALY   = 148.6103

EPHEMERIS_TYPE = 0
CLASSIFICATION_TYPE = U
NORAD_CAT_ID   = 67710
ELEMENT_SET_NO = 999
REV_AT_EPOCH   = 319
BSTAR          = -.50069E-2
MEAN_MOTION_DOT = -.1571046E-1
MEAN_MOTION_DDOT = .68945E-3

CCSDS_OMM_VERS = 2.0
CREATION_DATE  = 
ORIGINATOR     = 

OBJECT_NAME    = STARLINK-36687
OBJECT_ID      = 2026-025U
CENTER_NAME    = EARTH
REF_FRAME      = TEME
TIME_SYSTEM    = UTC
MEAN_ELEMENT_THEORY = SGP/SGP4

EPOCH          = 2026-02-20T04:00:03.000096
MEAN_MOTION    = 15.91495208
ECCENTRICITY   = .000172
INCLINATION    = 97.2717
RA_OF_ASC_NODE = 161.8541
ARG_OF_PERICENTER = 63.4918
MEAN_ANOMALY   = 160.0632

EPHEMERIS_TYPE = 0
CLASSIFICATION_TYPE = U
NORAD_CAT_ID   = 67711
ELEMENT_SET_NO = 999
REV_AT_EPOCH   = 319
BSTAR          = -.4867E-2
MEAN_MOTION_DOT = -.1550853E-1
MEAN_MOTION_DDOT = .67513E-3

CCSDS_OMM_VERS = 2.0
CREATION_DATE  = 
ORIGINATOR     = 

OBJECT_NAME    = STARLINK-36705
OBJECT_ID      = 2026-025V
CENTER_NAME    = EARTH
REF_FRAME      = TEME
TIME_SYSTEM    = UTC
MEAN_ELEMENT_THEORY = SGP/SGP4

EPOCH          = 2026-02-20T04:00:03.000096
MEAN_MOTION    = 15.92212803
ECCENTRICITY   = .0001721
INCLINATION    = 97.2708
RA_OF_ASC_NODE = 161.8610
ARG_OF_PERICENTER = 62.0698
MEAN_ANOMALY   = 179.5743

EPHEMERIS_TYPE = 0
CLASSIFICATION_TYPE = U
NORAD_CAT_ID   = 67712
ELEMENT_SET_NO = 999
REV_AT_EPOCH   = 309
BSTAR          = -.46283E-2
MEAN_MOTION_DOT = -.1530258E-1
MEAN_MOTION_DDOT = .66335E-3

CCSDS_OMM_VERS = 2.0
CREATION_DATE  = 
ORIGINATOR     = 

OBJECT_NAME    = STARLINK-36708
OBJECT_ID      = 2026-025W
CENTER_NAME    = EARTH
REF_FRAME      = TEME
TIME_SYSTEM    = UTC
MEAN_ELEMENT_THEORY = SGP/SGP4

EPOCH          = 2026-02-20T04:00:03.000096
MEAN_MOTION    = 15.93078638
ECCENTRICITY   = .0001509
INCLINATION    = 97.2713
RA_OF_ASC_NODE = 161.8712
ARG_OF_PERICENTER = 65.6000
MEAN_ANOMALY   = 198.0193

EPHEMERIS_TYPE = 0
CLASSIFICATION_TYPE = U
NORAD_CAT_ID   = 67713
ELEMENT_SET_NO = 999
REV_AT_EPOCH   = 309
BSTAR          = -.43348E-2
MEAN_MOTION_DOT = -.1499134E-1
MEAN_MOTION_DDOT = .64418E-3

CCSDS_OMM_VERS = 2.0
CREATION_DATE  = 
ORIGINATOR     = 

OBJECT_NAME    = STARLINK-36702
OBJECT_ID      = 2026-025X
CENTER_NAME    = EARTH
REF_FRAME      = TEME
TIME_SYSTEM    = UTC
MEAN_ELEMENT_THEORY = SGP/SGP4

EPOCH          = 2026-02-20T04:00:03.000096
MEAN_MOTION    = 15.92828812
ECCENTRICITY   = .0001581
INCLINATION    = 97.2711
RA_OF_ASC_NODE = 161.8680
ARG_OF_PERICENTER = 70.6422
MEAN_ANOMALY   = 186.3412

EPHEMERIS_TYPE = 0
CLASSIFICATION_TYPE = U
NORAD_CAT_ID   = 67714
ELEMENT_SET_NO = 999
REV_AT_EPOCH   = 282
BSTAR          = -.44764E-2
MEAN_MOTION_DOT = -.1527862E-1
MEAN_MOTION_DDOT = .66555E-3

CCSDS_OMM_VERS = 2.0
CREATION_DATE  = 
ORIGINATOR     = 

OBJECT_NAME    = STARLINK-36718
OBJECT_ID      = 2026-025Y
CENTER_NAME    = EARTH
REF_FRAME      = TEME
TIME_SYSTEM    = UTC
MEAN_ELEMENT_THEORY = SGP/SGP4

EPOCH          = 2026-02-20T04:00:03.000096
MEAN_MOTION    = 15.93724393
ECCENTRICITY   = .0001264
INCLINATION    = 97.2719
RA_OF_ASC_NODE = 161.8782
ARG_OF_PERICENTER = 76.3170
MEAN_ANOMALY   = 203.0324

EPHEMERIS_TYPE = 0
CLASSIFICATION_TYPE = U
NORAD_CAT_ID   = 67715
ELEMENT_SET_NO = 999
REV_AT_EPOCH   = 303
BSTAR          = -.42116E-2
MEAN_MOTION_DOT = -.1506299E-1
MEAN_MOTION_DDOT = .65419E-3

