STARLINK-36338          
1 67704U 26025M   26051.16670139 -.01624678  72224-3 -56167-2 0  9999
2 67704  97.2739 161.8338 0001599  70.8517 103.6141 15.89589586  3086
STARLINK-36316          
1 67705U 26025N   26051.16670139 -.01604000  70949-3 -53780-2 0  9997
2 67705  97.2731 161.8404 0001597  65.6467 124.5502 15.90197434  3089
STARLINK-36707          
1 67706U 26025P   26051.16670139 -.01578212  69059-3 -52085-2 0  9990
2 67706  97.2726 161.8438 0001702  65.9041 132.4855 15.90507485  2876
STARLINK-36645          
1 67707U 26025Q   26051.16670139 -.01620182  72102-3 -55026-2 0  9996
2 67707  97.2732 161.8369 0001636  67.0782 116.4060 15.89943284  2642
STARLINK-36287          
1 67708U 26025R   26051.16670139 -.01567723  68393-3 -51028-2 0  9993
2 67708  97.2722 161.8462 0001693  66.5083 138.9574 15.90779521  3190
STARLINK-36698          
1 67709U 26025S   26051.16670139 -.01547686  67496-3 -47697-2 0  9990
2 67709  97.2716 161.8578 0001522  72.0795 160.3359 15.91849983  3039
STARLINK-36344          
1 67710U 26025T   26051.16670139 -.01571046  68945-3 -50069-2 0  9996
2 67710  97.2720 161.8508 0001596  67.1723 148.6103 15.91195835  3199
STARLINK-36687          
1 67711U 26025U   26051.16670139 -.01550853  67513-3 -48670-2 0  9995
2 67711  97.2717 161.8541 0001720  63.4918 160.0632 15.91495208  3199
STARLINK-36705          
1 67712U 26025V   26051.16670139 -.01530258  66335-3 -46283-2 0  9992
2 67712  97.2708 161.8610 0001721  62.0698 179.5743 15.92212803  3094
STARLINK-36708          
1 67713U 26025W   26051.16670139 -.01499134  64418-3 -43348-2 0  9999
2 67713  97.2713 161.8712 0001509  65.6000 198.0193 15.93078638  3096
STARLINK-36702          
1 67714U 26025X   26051.16670139 -.01527862  66555-3 -44764-2 0  9997
2 67714  97.2711 161.8680 0001581  70.6422 186.3412 15.92828812  2823
STARLINK-36718          
1 67715U 26025Y   26051.16670139 -.01506299  65419-3 -42116-2 0  9996
2 67715  97.2719 161.8782 0001264  76.3170 203.0324 15.93724393  3039
